start=new Date('2021-09-05T00:00:00.000Z').valueOf();
sats=[{"NORAD_CAT_ID":"48682","SEMIMAJOR_AXIS":"6727.806","OBJECT_NAME":"STARLINK-2743","COUNTRY_CODE":"US","EPHEMERIS_TYPE":"0","MEAN_ANOMALY":"245.6176","RCS_SIZE":"LARGE","DECAY_DATE":null,"CLASSIFICATION_TYPE":"U","PERIOD":"91.531","APOAPSIS":"352.465","SITE":"AFETR","INCLINATION":"53.0451","OBJECT_TYPE":"PAYLOAD","REF_FRAME":"TEME","CENTER_NAME":"EARTH","ARG_OF_PERICENTER":"2.9874","TIME_SYSTEM":"UTC","RA_OF_ASC_NODE":"282.0533","TLE_LINE2":"2 48682  53.0451 282.0533 0004153   2.9874 245.6176 15.73231306  3694","MEAN_ELEMENT_THEORY":"SGP4","REV_AT_EPOCH":"369","BSTAR":"-0.00017884000000","ECCENTRICITY":"0.00041530","MEAN_MOTION_DOT":"-0.00025699","LAUNCH_DATE":"2021-05-26","PERIAPSIS":"346.877","OBJECT_ID":"2021-044AW","MEAN_MOTION":"15.73231306","EPOCH":"2021-09-04T22:00:00.999936","FILE":"3108751","ELEMENT_SET_NO":"999","GP_ID":"184106411","MEAN_MOTION_DDOT":"0.0000000000000","TLE_LINE1":"1 48682U 21044AW  21247.91667824 -.00025699  00000-0 -17884-3 0  9992"},{"INCLINATION":"53.0451","SITE":"AFETR","OBJECT_TYPE":"PAYLOAD","APOAPSIS":"352.503","PERIOD":"91.533","CLASSIFICATION_TYPE":"U","RCS_SIZE":"LARGE","DECAY_DATE":null,"COUNTRY_CODE":"US","EPHEMERIS_TYPE":"0","OBJECT_NAME":"STARLINK-2756","SEMIMAJOR_AXIS":"6727.871","MEAN_ANOMALY":"243.9698","NORAD_CAT_ID":"48683","ELEMENT_SET_NO":"999","TLE_LINE1":"1 48683U 21044AX  21247.91667824  .00012863  00000-0  95868-4 0  9999","GP_ID":"184106921","MEAN_MOTION_DDOT":"0.0000000000000","FILE":"3108751","EPOCH":"2021-09-04T22:00:00.999936","MEAN_MOTION":"15.73208348","OBJECT_ID":"2021-044AX","BSTAR":"0.00009586800000","REV_AT_EPOCH":"369","MEAN_ELEMENT_THEORY":"SGP4","TLE_LINE2":"2 48683  53.0451 282.0525 0004112   5.3049 243.9698 15.73208348  3692","RA_OF_ASC_NODE":"282.0525","PERIAPSIS":"346.970","LAUNCH_DATE":"2021-05-26","ECCENTRICITY":"0.00041120","MEAN_MOTION_DOT":"0.00012863","ARG_OF_PERICENTER":"5.3049","CENTER_NAME":"EARTH","REF_FRAME":"TEME","TIME_SYSTEM":"UTC"},{"MEAN_MOTION":"15.53698430","EPOCH":"2021-09-04T22:00:00.999936","OBJECT_ID":"2021-044AY","FILE":"3108751","GP_ID":"184106638","MEAN_MOTION_DDOT":"0.0000000000000","TLE_LINE1":"1 48684U 21044AY  21247.91667824 -.01090345  00000-0 -18485-1 0  9991","ELEMENT_SET_NO":"999","TIME_SYSTEM":"UTC","REF_FRAME":"TEME","ARG_OF_PERICENTER":"49.6074","CENTER_NAME":"EARTH","ECCENTRICITY":"0.00012780","MEAN_MOTION_DOT":"-0.01090345","LAUNCH_DATE":"2021-05-26","PERIAPSIS":"405.074","REV_AT_EPOCH":"369","MEAN_ELEMENT_THEORY":"SGP4","RA_OF_ASC_NODE":"282.6477","TLE_LINE2":"2 48684  53.0466 282.6477 0001278  49.6074 270.2274 15.53698430  3696","BSTAR":"-0.01848500000000","CLASSIFICATION_TYPE":"U","DECAY_DATE":null,"RCS_SIZE":"LARGE","APOAPSIS":"406.808","PERIOD":"92.682","OBJECT_TYPE":"PAYLOAD","INCLINATION":"53.0466","SITE":"AFETR","NORAD_CAT_ID":"48684","MEAN_ANOMALY":"270.2274","OBJECT_NAME":"STARLINK-2741","SEMIMAJOR_AXIS":"6784.076","COUNTRY_CODE":"US","EPHEMERIS_TYPE":"0"},{"MEAN_MOTION_DDOT":"0.0000000000000","GP_ID":"184106826","TLE_LINE1":"1 48685U 21044AZ  21247.91667824  .00065592  00000-0  46850-3 0  9994","ELEMENT_SET_NO":"999","MEAN_MOTION":"15.73168083","EPOCH":"2021-09-04T22:00:00.999936","OBJECT_ID":"2021-044AZ","FILE":"3108751","MEAN_MOTION_DOT":"0.00065592","ECCENTRICITY":"0.00042410","LAUNCH_DATE":"2021-05-26","PERIAPSIS":"346.998","MEAN_ELEMENT_THEORY":"SGP4","REV_AT_EPOCH":"369","RA_OF_ASC_NODE":"282.0528","TLE_LINE2":"2 48685  53.0453 282.0528 0004241   7.9302 242.6414 15.73168083  3695","BSTAR":"0.00046850000000","TIME_SYSTEM":"UTC","REF_FRAME":"TEME","ARG_OF_PERICENTER":"7.9302","CENTER_NAME":"EARTH","OBJECT_TYPE":"PAYLOAD","INCLINATION":"53.0453","SITE":"AFETR","CLASSIFICATION_TYPE":"U","DECAY_DATE":null,"RCS_SIZE":"LARGE","APOAPSIS":"352.705","PERIOD":"91.535","MEAN_ANOMALY":"242.6414","OBJECT_NAME":"STARLINK-2751","SEMIMAJOR_AXIS":"6727.986","COUNTRY_CODE":"US","EPHEMERIS_TYPE":"0","NORAD_CAT_ID":"48685"},{"OBJECT_ID":"2021-044BA","EPOCH":"2021-09-04T22:00:00.999936","MEAN_MOTION":"15.73215373","FILE":"3108751","ELEMENT_SET_NO":"999","GP_ID":"184106732","MEAN_MOTION_DDOT":"0.0000000000000","TLE_LINE1":"1 48686U 21044BA  21247.91667824 -.00019938  00000-0 -13775-3 0  9990","REF_FRAME":"TEME","CENTER_NAME":"EARTH","ARG_OF_PERICENTER":"3.1397","TIME_SYSTEM":"UTC","TLE_LINE2":"2 48686  53.0450 282.0475 0004049   3.1397 248.0188 15.73215373  3662","RA_OF_ASC_NODE":"282.0475","REV_AT_EPOCH":"366","MEAN_ELEMENT_THEORY":"SGP4","BSTAR":"-0.00013775000000","ECCENTRICITY":"0.00040490","MEAN_MOTION_DOT":"-0.00019938","PERIAPSIS":"346.992","LAUNCH_DATE":"2021-05-26","RCS_SIZE":"LARGE","DECAY_DATE":null,"CLASSIFICATION_TYPE":"U","PERIOD":"91.532","APOAPSIS":"352.440","SITE":"AFETR","INCLINATION":"53.0450","OBJECT_TYPE":"PAYLOAD","NORAD_CAT_ID":"48686","SEMIMAJOR_AXIS":"6727.851","OBJECT_NAME":"STARLINK-2629","COUNTRY_CODE":"US","EPHEMERIS_TYPE":"0","MEAN_ANOMALY":"248.0188"},{"FILE":"3108751","EPOCH":"2021-09-04T22:00:00.999936","MEAN_MOTION":"15.73222293","OBJECT_ID":"2021-044BB","TLE_LINE1":"1 48687U 21044BB  21247.91667824 -.00034290  00000-0 -24045-3 0  9991","MEAN_MOTION_DDOT":"0.0000000000000","GP_ID":"184106920","ELEMENT_SET_NO":"999","TIME_SYSTEM":"UTC","ARG_OF_PERICENTER":"1.3200","CENTER_NAME":"EARTH","REF_FRAME":"TEME","LAUNCH_DATE":"2021-05-26","PERIAPSIS":"346.882","ECCENTRICITY":"0.00041840","MEAN_MOTION_DOT":"-0.00034290","BSTAR":"-0.00024045000000","MEAN_ELEMENT_THEORY":"SGP4","REV_AT_EPOCH":"369","RA_OF_ASC_NODE":"282.0448","TLE_LINE2":"2 48687  53.0449 282.0448 0004184   1.3200 250.4685 15.73222293  3695","APOAPSIS":"352.512","PERIOD":"91.532","CLASSIFICATION_TYPE":"U","DECAY_DATE":null,"RCS_SIZE":"LARGE","OBJECT_TYPE":"PAYLOAD","INCLINATION":"53.0449","SITE":"AFETR","NORAD_CAT_ID":"48687","MEAN_ANOMALY":"250.4685","COUNTRY_CODE":"US","EPHEMERIS_TYPE":"0","OBJECT_NAME":"STARLINK-2627","SEMIMAJOR_AXIS":"6727.832"},{"TLE_LINE1":"1 48688U 21044BC  21247.91667824  .00017017  00000-0  12534-3 0  9998","MEAN_MOTION_DDOT":"0.0000000000000","GP_ID":"184106319","ELEMENT_SET_NO":"999","FILE":"3108751","MEAN_MOTION":"15.73206269","EPOCH":"2021-09-04T22:00:00.999936","OBJECT_ID":"2021-044BC","PERIAPSIS":"346.902","LAUNCH_DATE":"2021-05-26","ECCENTRICITY":"0.00042210","MEAN_MOTION_DOT":"0.00017017","BSTAR":"0.00012534000000","REV_AT_EPOCH":"369","MEAN_ELEMENT_THEORY":"SGP4","RA_OF_ASC_NODE":"282.0432","TLE_LINE2":"2 48688  53.0448 282.0432 0004221 359.8791 252.5623 15.73206269  3696","TIME_SYSTEM":"UTC","ARG_OF_PERICENTER":"359.8791","CENTER_NAME":"EARTH","REF_FRAME":"TEME","OBJECT_TYPE":"PAYLOAD","INCLINATION":"53.0448","SITE":"AFETR","APOAPSIS":"352.582","PERIOD":"91.533","CLASSIFICATION_TYPE":"U","DECAY_DATE":null,"RCS_SIZE":"LARGE","MEAN_ANOMALY":"252.5623","EPHEMERIS_TYPE":"0","COUNTRY_CODE":"US","OBJECT_NAME":"STARLINK-2742","SEMIMAJOR_AXIS":"6727.877","NORAD_CAT_ID":"48688"},{"OBJECT_TYPE":"PAYLOAD","INCLINATION":"53.0449","SITE":"AFETR","APOAPSIS":"352.523","PERIOD":"91.531","CLASSIFICATION_TYPE":"U","RCS_SIZE":"LARGE","DECAY_DATE":null,"MEAN_ANOMALY":"247.3832","COUNTRY_CODE":"US","EPHEMERIS_TYPE":"0","OBJECT_NAME":"STARLINK-2617","SEMIMAJOR_AXIS":"6727.795","NORAD_CAT_ID":"48689","TLE_LINE1":"1 48689U 21044BD  21247.91667824 -.00053288  00000-0 -37677-3 0  9996","MEAN_MOTION_DDOT":"0.0000000000000","GP_ID":"184106505","ELEMENT_SET_NO":"999","FILE":"3108751","MEAN_MOTION":"15.73234989","EPOCH":"2021-09-04T22:00:00.999936","OBJECT_ID":"2021-044BD","PERIAPSIS":"346.798","LAUNCH_DATE":"2021-05-26","ECCENTRICITY":"0.00042550","MEAN_MOTION_DOT":"-0.00053288","BSTAR":"-0.00037677000000","MEAN_ELEMENT_THEORY":"SGP4","REV_AT_EPOCH":"366","TLE_LINE2":"2 48689  53.0449 282.0438 0004255   5.6788 247.3832 15.73234989  3664","RA_OF_ASC_NODE":"282.0438","TIME_SYSTEM":"UTC","ARG_OF_PERICENTER":"5.6788","CENTER_NAME":"EARTH","REF_FRAME":"TEME"},{"FILE":"3108751","MEAN_MOTION":"15.71822804","EPOCH":"2021-09-04T22:00:00.999936","OBJECT_ID":"2021-044BE","ELEMENT_SET_NO":"999","TLE_LINE1":"1 48690U 21044BE  21247.91667824 -.00892150  00000-0 -74803-2 0  9998","GP_ID":"184106412","MEAN_MOTION_DDOT":"0.0000000000000","ARG_OF_PERICENTER":"2.7434","CENTER_NAME":"EARTH","REF_FRAME":"TEME","TIME_SYSTEM":"UTC","BSTAR":"-0.00748030000000","MEAN_ELEMENT_THEORY":"SGP4","REV_AT_EPOCH":"369","RA_OF_ASC_NODE":"282.0567","TLE_LINE2":"2 48690  53.0468 282.0567 0003814   2.7434 248.9823 15.71822804  3693","PERIAPSIS":"351.122","LAUNCH_DATE":"2021-05-26","MEAN_MOTION_DOT":"-0.00892150","ECCENTRICITY":"0.00038140","APOAPSIS":"356.257","PERIOD":"91.613","CLASSIFICATION_TYPE":"U","RCS_SIZE":"LARGE","DECAY_DATE":null,"INCLINATION":"53.0468","SITE":"AFETR","OBJECT_TYPE":"PAYLOAD","NORAD_CAT_ID":"48690","EPHEMERIS_TYPE":"0","COUNTRY_CODE":"US","OBJECT_NAME":"STARLINK-2740","SEMIMAJOR_AXIS":"6731.824","MEAN_ANOMALY":"248.9823"},{"APOAPSIS":"352.449","PERIOD":"91.532","CLASSIFICATION_TYPE":"U","DECAY_DATE":null,"RCS_SIZE":"LARGE","OBJECT_TYPE":"PAYLOAD","INCLINATION":"53.0450","SITE":"AFETR","NORAD_CAT_ID":"48691","MEAN_ANOMALY":"252.3629","EPHEMERIS_TYPE":"0","COUNTRY_CODE":"US","OBJECT_NAME":"STARLINK-2750","SEMIMAJOR_AXIS":"6727.843","FILE":"3108751","EPOCH":"2021-09-04T22:00:00.999936","MEAN_MOTION":"15.73218195","OBJECT_ID":"2021-044BF","TLE_LINE1":"1 48691U 21044BF  21247.91667824 -.00005570  00000-0 -35202-4 0  9993","GP_ID":"184106922","MEAN_MOTION_DDOT":"0.0000000000000","ELEMENT_SET_NO":"999","TIME_SYSTEM":"UTC","ARG_OF_PERICENTER":"1.9895","CENTER_NAME":"EARTH","REF_FRAME":"TEME","PERIAPSIS":"346.968","LAUNCH_DATE":"2021-05-26","ECCENTRICITY":"0.00040730","MEAN_MOTION_DOT":"-0.00005570","BSTAR":"-0.00003520200000","MEAN_ELEMENT_THEORY":"SGP4","REV_AT_EPOCH":"369","TLE_LINE2":"2 48691  53.0450 282.0415 0004073   1.9895 252.3629 15.73218195  3694","RA_OF_ASC_NODE":"282.0415"}];
